EUTELSAT QUANTUM        
1 49056U 21069B   25332.58868525  .00000146  00000+0  00000+0 0  9993
2 49056   0.0286  47.8045 0003309 213.0477  66.5280  1.00271712 15913
EUTELSAT KONNECT VHTS   
1 53765U 22110A   25331.29561314  .00000036  00000+0  00000+0 0  9994
2 53765   0.0588 106.9187 0002644 111.5882 317.0972  1.00268339  4806
EUTELSAT HOTBIRD 13F    
1 54048U 22134A   25329.65680551  .00000106  00000+0  00000+0 0  9995
2 54048   0.0566 287.0508 0001916  80.2813 306.9983  1.00270832 11338
EUTELSAT HOTBIRD 13G    
1 54225U 22146A   25332.58183855  .00000107  00000+0  00000+0 0  9997
2 54225   0.0456 238.8502 0001918 299.8633 111.4908  1.00270161  5458
EUTELSAT 10B            
1 54259U 22157A   25332.58123187  .00000089  00000+0  00000+0 0  9997
2 54259   0.0567 104.1097 0000930  46.1489 136.7677  1.00270102 11014
EUTELSAT 36D            
1 59346U 24059A   25332.58634524  .00000000  00000+0  00000+0 0  9997
2 59346   0.0154 323.2182 0000368 341.8127   9.6579  1.00270640  6139
